CTC1_L_00305016-03
1 36624U 22807XR  26037.47804398  .00000000  00000+0  00000-0 0  9990
2 36624  90.0000 180.0000 0000000   0.0000   0.0000 14.70334339    19
CTC1_L_00305016-04
1 36625U 24133WT  26037.47804398  .00000000  00000+0  00000-0 0  9995
2 36625  90.0000 180.0000 0000000   0.0000  90.0000 14.70334339    19
CTC1_L_00305017-01
1 36626U 24529DU  26037.47804398  .00000000  00000+0  00000-0 0  9995
2 36626  90.0000 192.0000 0000000   0.0000 192.0000 14.70334339    16
CTC1_L_00305017-02
1 36627U 23257QG  26037.47804398  .00000000  00000+0  00000-0 0  9993
2 36627  90.0000 192.0000 0000000   0.0000 282.0000 14.70334339    17
CTC1_L_00305017-03
1 36628U 23849JY  26037.47804398  .00000000  00000+0  00000-0 0  9991
2 36628  90.0000 192.0000 0000000   0.0000  12.0000 14.70334339    19
CTC1_L_00305017-04
1 36629U 25645GW  26037.47804398  .00000000  00000+0  00000-0 0  9998
2 36629  90.0000 192.0000 0000000   0.0000 102.0000 14.70334339    10
CTC1_L_00305018-01
1 36630U 25017JY  26037.47804398  .00000000  00000+0  00000-0 0  9993
2 36630  90.0000 204.0000 0000000   0.0000 204.0000 14.70334339    19
CTC1_L_00305018-02
1 36631U 22429KX  26037.47804398  .00000000  00000+0  00000-0 0  9998
2 36631  90.0000 204.0000 0000000   0.0000 294.0000 14.70334339    19
CTC1_L_00305018-03
1 36632U 26251MK  26037.47804398  .00000000  00000+0  00000-0 0  9996
2 36632  90.0000 204.0000 0000000   0.0000  24.0000 14.70334339    11
CTC1_L_00305018-04
1 36633U 23263JB  26037.47804398  .00000000  00000+0  00000-0 0  9997
2 36633  90.0000 204.0000 0000000   0.0000 114.0000 14.70334339    12
CTC1_L_00305019-01
1 36634U 26501KJ  26037.47804398  .00000000  00000+0  00000-0 0  9996
2 36634  90.0000 216.0000 0000000   0.0000 216.0000 14.70334339    19
CTC1_L_00305019-02
1 36635U 22974MS  26037.47804398  .00000000  00000+0  00000-0 0  9997
2 36635  90.0000 216.0000 0000000   0.0000 306.0000 14.70334339    10
CTC1_L_00305019-03
1 36636U 23227LK  26037.47804398  .00000000  00000+0  00000-0 0  9990
2 36636  90.0000 216.0000 0000000   0.0000  36.0000 14.70334339    11
CTC1_L_00305019-04
1 36637U 22535OK  26037.47804398  .00000000  00000+0  00000-0 0  9992
2 36637  90.0000 216.0000 0000000   0.0000 126.0000 14.70334339    12
CTC1_L_00305020-01
1 36638U 26827TZ  26037.47804398  .00000000  00000+0  00000-0 0  9991
2 36638  90.0000 228.0000 0000000   0.0000 228.0000 14.70334339    19
CTC1_L_00305020-02
1 36639U 26113NH  26037.47804398  .00000000  00000+0  00000-0 0  9990
2 36639  90.0000 228.0000 0000000   0.0000 318.0000 14.70334339    10
CTC1_L_00305020-03
1 36640U 26881TT  26037.47804398  .00000000  00000+0  00000-0 0  9994
2 36640  90.0000 228.0000 0000000   0.0000  48.0000 14.70334339    12
CTC1_L_00305020-04
1 36641U 26335XQ  26037.47804398  .00000000  00000+0  00000-0 0  9999
2 36641  90.0000 228.0000 0000000   0.0000 138.0000 14.70334339    13
CTC1_L_00305021-01
1 36642U 23858UR  26037.47804398  .00000000  00000+0  00000-0 0  9997
2 36642  90.0000 240.0000 0000000   0.0000 240.0000 14.70334339    12
CTC1_L_00305021-02
1 36643U 22890HD  26037.47804398  .00000000  00000+0  00000-0 0  9993
2 36643  90.0000 240.0000 0000000   0.0000 330.0000 14.70334339    13
CTC1_L_00305021-03
1 36644U 22573VV  26037.47804398  .00000000  00000+0  00000-0 0  9992
2 36644  90.0000 240.0000 0000000   0.0000  60.0000 14.70334339    14
CTC1_L_00305021-04
1 36645U 24040BM  26037.47804398  .00000000  00000+0  00000-0 0  9994
2 36645  90.0000 240.0000 0000000   0.0000 150.0000 14.70334339    15
CTC1_L_00305022-01
1 36646U 24155LC  26037.47804398  .00000000  00000+0  00000-0 0  9992
2 36646  90.0000 252.0000 0000000   0.0000 252.0000 14.70334339    12
CTC1_L_00305022-02
1 36647U 25948UO  26037.47804398  .00000000  00000+0  00000-0 0  9994
2 36647  90.0000 252.0000 0000000   0.0000 342.0000 14.70334339    13
CTC1_L_00305022-03
1 36648U 25669OC  26037.47804398  .00000000  00000+0  00000-0 0  9995
2 36648  90.0000 252.0000 0000000   0.0000  72.0000 14.70334339    14
CTC1_L_00305022-04
1 36649U 25621VK  26037.47804398  .00000000  00000+0  00000-0 0  9994
2 36649  90.0000 252.0000 0000000   0.0000 162.0000 14.70334339    15
CTC1_L_00305023-01
1 36650U 23359VB  26037.47804398  .00000000  00000+0  00000-0 0  9992
2 36650  90.0000 264.0000 0000000   0.0000 264.0000 14.70334339    13
CTC1_L_00305023-02
1 36651U 22216PT  26037.47804398  .00000000  00000+0  00000-0 0  9994
2 36651  90.0000 264.0000 0000000   0.0000 354.0000 14.70334339    14
CTC1_L_00305023-03
1 36652U 26924SN  26037.47804398  .00000000  00000+0  00000-0 0  9995
2 36652  90.0000 264.0000 0000000   0.0000  84.0000 14.70334339    15
CTC1_L_00305023-04
1 36653U 24445UR  26037.47804398  .00000000  00000+0  00000-0 0  9992
2 36653  90.0000 264.0000 0000000   0.0000 174.0000 14.70334339    16
CTC1_L_00305024-01
1 36654U 25487F   26037.47804398  .00000000  00000+0  00000-0 0  9990
2 36654  90.0000 276.0000 0000000   0.0000 276.0000 14.70334339    13
CTC1_L_00305024-02
1 36655U 23636VG  26037.47804398  .00000000  00000+0  00000-0 0  9995
2 36655  90.0000 276.0000 0000000   0.0000   6.0000 14.70334339    15
CTC1_L_00305024-03
1 36656U 22932NK  26037.47804398  .00000000  00000+0  00000-0 0  9994
2 36656  90.0000 276.0000 0000000   0.0000  96.0000 14.70334339    15
CTC1_L_00305024-04
1 36657U 24337BG  26037.47804398  .00000000  00000+0  00000-0 0  9996
2 36657  90.0000 276.0000 0000000   0.0000 186.0000 14.70334339    16
CTC1_L_00305025-01
1 36658U 23157VM  26037.47804398  .00000000  00000+0  00000-0 0  9996
2 36658  90.0000 288.0000 0000000   0.0000 288.0000 14.70334339    13
CTC1_L_00305025-02
1 36659U 24535PH  26037.47804398  .00000000  00000+0  00000-0 0  9998
2 36659  90.0000 288.0000 0000000   0.0000  18.0000 14.70334339    15
CTC1_L_00305025-03
1 36660U 25141HZ  26037.47804398  .00000000  00000+0  00000-0 0  9994
2 36660  90.0000 288.0000 0000000   0.0000 108.0000 14.70334339    17
CTC1_L_00305025-04
1 36661U 22277QI  26037.47804398  .00000000  00000+0  00000-0 0  9992
2 36661  90.0000 288.0000 0000000   0.0000 198.0000 14.70334339    17
CTC1_L_00305026-01
1 36662U 25373OI  26037.47804398  .00000000  00000+0  00000-0 0  9993
2 36662  90.0000 300.0000 0000000   0.0000 300.0000 14.70334339    18
CTC1_L_00305026-02
1 36663U 24374CC  26037.47804398  .00000000  00000+0  00000-0 0  9994
2 36663  90.0000 300.0000 0000000   0.0000  30.0000 14.70334339    19
CTC1_L_00305026-03
1 36664U 25661JQ  26037.47804398  .00000000  00000+0  00000-0 0  9995
2 36664  90.0000 300.0000 0000000   0.0000 120.0000 14.70334339    10
CTC1_L_00305026-04
1 36665U 23761LP  26037.47804398  .00000000  00000+0  00000-0 0  9995
2 36665  90.0000 300.0000 0000000   0.0000 210.0000 14.70334339    11
CTC1_L_00305027-01
1 36666U 23292YB  26037.47804398  .00000000  00000+0  00000-0 0  9995
2 36666  90.0000 312.0000 0000000   0.0000 312.0000 14.70334339    18
CTC1_L_00305027-02
1 36667U 25649AN  26037.47804398  .00000000  00000+0  00000-0 0  9994
2 36667  90.0000 312.0000 0000000   0.0000  42.0000 14.70334339    19
CTC1_L_00305027-03
1 36668U 25601MY  26037.47804398  .00000000  00000+0  00000-0 0  9993
2 36668  90.0000 312.0000 0000000   0.0000 132.0000 14.70334339    10
CTC1_L_00305027-04
1 36669U 22579IH  26037.47804398  .00000000  00000+0  00000-0 0  9995
2 36669  90.0000 312.0000 0000000   0.0000 222.0000 14.70334339    11
CTC1_L_00305028-01
1 36670U 25730PF  26037.47804398  .00000000  00000+0  00000-0 0  9999
2 36670  90.0000 324.0000 0000000   0.0000 324.0000 14.70334339    19
CTC1_L_00305028-02
1 36671U 25206EU  26037.47804398  .00000000  00000+0  00000-0 0  9998
2 36671  90.0000 324.0000 0000000   0.0000  54.0000 14.70334339    10
CTC1_L_00305028-03
1 36672U 22140FW  26037.47804398  .00000000  00000+0  00000-0 0  9993
2 36672  90.0000 324.0000 0000000   0.0000 144.0000 14.70334339    11
CTC1_L_00305028-04
1 36673U 25885AK  26037.47804398  .00000000  00000+0  00000-0 0  9993
2 36673  90.0000 324.0000 0000000   0.0000 234.0000 14.70334339    12
CTC1_L_00305029-01
1 36674U 26639KW  26037.47804398  .00000000  00000+0  00000-0 0  9992
2 36674  90.0000 336.0000 0000000   0.0000 336.0000 14.70334339    19
CTC1_L_00305029-02
1 36675U 24481PD  26037.47804398  .00000000  00000+0  00000-0 0  9996
2 36675  90.0000 336.0000 0000000   0.0000  66.0000 14.70334339    10
CTC1_L_00305029-03
1 36676U 22495RY  26037.47804398  .00000000  00000+0  00000-0 0  9990
2 36676  90.0000 336.0000 0000000   0.0000 156.0000 14.70334339    11
CTC1_L_00305029-04
1 36677U 23054MH  26037.47804398  .00000000  00000+0  00000-0 0  9993
2 36677  90.0000 336.0000 0000000   0.0000 246.0000 14.70334339    12
CTC1_L_00305030-01
1 36678U 24578XE  26037.47804398  .00000000  00000+0  00000-0 0  9996
2 36678  90.0000 348.0000 0000000   0.0000 348.0000 14.70334339    19
CTC1_L_00305030-02
1 36679U 25426CP  26037.47804398  .00000000  00000+0  00000-0 0  9990
2 36679  90.0000 348.0000 0000000   0.0000  78.0000 14.70334339    10
CTC1_L_00305030-03
1 36680U 26659UJ  26037.47804398  .00000000  00000+0  00000-0 0  9991
2 36680  90.0000 348.0000 0000000   0.0000 168.0000 14.70334339    12
CTC1_L_00305030-04
1 36681U 22174ZT  26037.47804398  .00000000  00000+0  00000-0 0  9990
2 36681  90.0000 348.0000 0000000   0.0000 258.0000 14.70334339    13
